#dV2023  1  7 22  0  0.00000000    1682       CTS   FIT  GFZ
## 2243 597600.00000000    30.00000000 59951 0.9166666666667
+    1   L64  0  0  0  0  0  0  0  0  0  0  0  0  0  0  0  0
+          0  0  0  0  0  0  0  0  0  0  0  0  0  0  0  0  0
+          0  0  0  0  0  0  0  0  0  0  0  0  0  0  0  0  0
+          0  0  0  0  0  0  0  0  0  0  0  0  0  0  0  0  0
+          0  0  0  0  0  0  0  0  0  0  0  0  0  0  0  0  0
++         0  0  0  0  0  0  0  0  0  0  0  0  0  0  0  0  0
++         0  0  0  0  0  0  0  0  0  0  0  0  0  0  0  0  0
++         0  0  0  0  0  0  0  0  0  0  0  0  0  0  0  0  0
++         0  0  0  0  0  0  0  0  0  0  0  0  0  0  0  0  0
++         0  0  0  0  0  0  0  0  0  0  0  0  0  0  0  0  0
%c L  cc GPS ccc cccc cccc cccc cccc ccccc ccccc ccccc ccccc
%c cc cc ccc ccc cccc cccc cccc cccc ccccc ccccc ccccc ccccc
%f  0.0000000  0.000000000  0.00000000000  0.000000000000000
%f  0.0000000  0.000000000  0.00000000000  0.000000000000000
%i    0    0    0    0      0      0      0      0         0
%i    0    0    0    0      0      0      0      0         0
/* CCCCCCCCCCCCCCCCCCCCCCCCCCCCCCCCCCCCCCCCCCCCCCCCCCCCCCCCCCCCCCCCCCCCCCCCCCCCC
/* C                             GFZ RSO-ORBIT                                 C
/* C DOI: https://doi.org/10.5880/GFZ_ORBIT/RSO/L64_G_v02                      C
/* C                                                                           C
/* C DORIS        RMS: not applicable                                          C
/* C GNSS-E Code  RMS: not applicable                                          C
/* C GNSS-E Phase RMS: not applicable                                          C
/* C GNSS-G Code  RMS:  48.396 [cm]   Obs.acc.:     14195 Obs.eli.:      1275  C
/* C GNSS-G Phase RMS:   3.787 [mm]   Obs.acc.:     14195 Obs.eli.:      1275  C
/* C SLR          RMS:   8.485 [cm]   Obs.acc.:       102 Obs.eli.:         0  C
/* C                                                                           C
/* CCCCCCCCCCCCCCCCCCCCCCCCCCCCCCCCCCCCCCCCCCCCCCCCCCCCCCCCCCCCCCCCCCCCCCCCCCCCC
*  2023  1  7 22 51  0.00000000
PL64    368.990502  -2511.388297  -6382.944074  23461.855696
VL64  12043.598468 -69636.322561  28109.300216 999999.999999
*  2023  1  7 22 51 30.00000000
PL64    404.457349  -2718.959832  -6295.105986  23462.315109
VL64  11599.460076 -68731.697383  30444.103791 999999.999999
*  2023  1  7 22 52  0.00000000
PL64    438.578636  -2923.700933  -6200.312659  23462.774641
VL64  11146.695767 -67749.526632  32745.700168 999999.999999
*  2023  1  7 22 52 30.00000000
PL64    471.329725  -3125.380449  -6098.667532  23463.234169
VL64  10686.132810 -66690.815554  35011.550919 999999.999999
*  2023  1  7 22 53  0.00000000
PL64    502.688466  -3323.770376  -5990.281604  23463.693677
VL64  10218.602802 -65556.656923  37239.153196 999999.999999
*  2023  1  7 22 53 30.00000000
PL64    532.635209  -3518.646119  -5875.273326  23464.153174
VL64   9744.940485 -64348.229878  39426.042885 999999.999999
*  2023  1  7 22 54  0.00000000
PL64    561.152813  -3709.786748  -5753.768483  23464.612836
VL64   9265.982585 -63066.798789  41569.796883 999999.999999
*  2023  1  7 22 54 30.00000000
PL64    588.226647  -3896.975254  -5625.900062  23465.072420
VL64   8782.566476 -61713.712610  43668.035602 999999.999999
*  2023  1  7 22 55  0.00000000
PL64    613.844591  -4079.998799  -5491.808120  23465.532068
VL64   8295.528702 -60290.403813  45718.425836 999999.999999
*  2023  1  7 22 55 30.00000000
PL64    637.997032  -4258.648966  -5351.639641  23465.991767
VL64   7805.703583 -58798.387113  47718.683376 999999.999999
*  2023  1  7 22 56  0.00000000
PL64    660.676856  -4432.722007  -5205.548387  23466.451056
VL64   7313.922070 -57239.258238  49666.575751 999999.999999
*  2023  1  7 22 56 30.00000000
PL64    681.879435  -4602.019076  -5053.694732  23466.910121
VL64   6821.010674 -55614.692386  51559.925026 999999.999999
*  2023  1  7 22 57  0.00000000
PL64    701.602611  -4766.346474  -4896.245503  23467.369458
VL64   6327.790181 -53926.442611  53396.610173 999999.999999
*  2023  1  7 22 57 30.00000000
PL64    719.846681  -4925.515875  -4733.373799  23467.828930
VL64   5835.074409 -52176.338637  55174.569466 999999.999999
*  2023  1  7 22 58  0.00000000
PL64    736.614368  -5079.344555  -4565.258813  23468.288511
VL64   5343.669195 -50366.285481  56891.803488 999999.999999
*  2023  1  7 22 58 30.00000000
PL64    751.910803  -5227.655615  -4392.085639  23468.747896
VL64   4854.371159 -48498.261265  58546.378448 999999.999999
*  2023  1  7 22 59  0.00000000
PL64    765.743489  -5370.278197  -4214.045069  23469.207485
VL64   4367.966257 -46574.314151  60136.428826 999999.999999
*  2023  1  7 22 59 30.00000000
PL64    778.122268  -5507.047690  -4031.333389  23469.667063
VL64   3885.228566 -44596.559688  61660.158741 999999.999999
*  2023  1  7 23  0  0.00000000
PL64    789.059289  -5637.805927  -3844.152165  23470.126638
VL64   3406.919217 -42567.179332  63115.843521 999999.999999
*  2023  1  7 23  0 30.00000000
PL64    798.568960  -5762.401384  -3652.708026  23470.586138
VL64   2933.785316 -40488.418656  64501.832324 999999.999999
*  2023  1  7 23  1  0.00000000
PL64    806.667909  -5880.689364  -3457.212444  23471.045355
VL64   2466.558980 -38362.584620  65816.550602 999999.999999
*  2023  1  7 23  1 30.00000000
PL64    813.374938  -5992.532182  -3257.881492  23471.504623
VL64   2005.956363 -36192.042970  67058.501913 999999.999999
*  2023  1  7 23  2  0.00000000
PL64    818.710971  -6097.799334  -3054.935618  23471.963916
VL64   1552.676649 -33979.216024  68226.269833 999999.999999
*  2023  1  7 23  2 30.00000000
PL64    822.699003  -6196.367667  -2848.599394  23472.423180
VL64   1107.401068 -31726.580373  69318.520266 999999.999999
*  2023  1  7 23  3  0.00000000
PL64    825.364044  -6288.121534  -2639.101267  23472.882680
VL64    670.791877 -29436.663891  70334.003904 999999.999999
*  2023  1  7 23  3 30.00000000
PL64    826.733063  -6372.952944  -2426.673303  23473.342410
VL64    243.491251 -27112.042255  71271.558013 999999.999999
*  2023  1  7 23  4  0.00000000
PL64    826.834922  -6450.761702  -2211.550926  23473.801920
VL64   -173.880002 -24755.335815  72130.107889 999999.999999
*  2023  1  7 23  4 30.00000000
PL64    825.700312  -6521.455535  -1993.972648  23474.261203
VL64   -580.723597 -22369.206295  72908.668490 999999.999999
*  2023  1  7 23  5  0.00000000
PL64    823.361683  -6584.950215  -1774.179801  23474.720533
VL64   -976.464682 -19956.353313  73606.345801 999999.999999
*  2023  1  7 23  5 30.00000000
PL64    819.853177  -6641.169664  -1552.416261  23475.179981
VL64  -1360.552579 -17519.510970  74222.337982 999999.999999
*  2023  1  7 23  6  0.00000000
PL64    815.210548  -6690.046056  -1328.928170  23475.639329
VL64  -1732.461279 -15061.444544  74755.936305 999999.999999
*  2023  1  7 23  6 30.00000000
PL64    809.471091  -6731.519900  -1103.963655  23476.098995
VL64  -2091.689923 -12584.947289  75206.526178 999999.999999
*  2023  1  7 23  7  0.00000000
PL64    802.673564  -6765.540125   -877.772544  23476.558418
VL64  -2437.763678 -10092.836827  75573.588071 999999.999999
*  2023  1  7 23  7 30.00000000
PL64    794.858112  -6792.064145   -650.606082  23477.017446
VL64  -2770.234703  -7587.951555  75856.697899 999999.999999
*  2023  1  7 23  8  0.00000000
PL64    786.066180  -6811.057915   -422.716640  23477.476449
VL64  -3088.682749  -5073.147426  76055.527372 999999.999999
*  2023  1  7 23  8 30.00000000
PL64    776.340432  -6822.495981   -194.357433  23477.935681
VL64  -3392.715524  -2551.294873  76169.844269 999999.999999
*  2023  1  7 23  9  0.00000000
PL64    765.724667  -6826.361518     34.217774  23478.394906
VL64  -3681.969487    -25.275967  76199.513559 999999.999999
*  2023  1  7 23  9 30.00000000
PL64    754.263729  -6822.646360    262.754961  23478.854306
VL64  -3956.110466   2502.020314  76144.498994 999999.999999
*  2023  1  7 23 10  0.00000000
PL64    742.003423  -6811.351010    491.000143  23479.313842
VL64  -4214.833562   5027.703218  76004.862200 999999.999999
*  2023  1  7 23 10 30.00000000
PL64    728.990422  -6792.484644    718.699667  23479.773258
VL64  -4457.863390   7548.882766  75780.761201 999999.999999
*  2023  1  7 23 11  0.00000000
PL64    715.272182  -6766.065104    945.600497  23480.232715
VL64  -4684.954675  10062.671831  75472.450805 999999.999999
*  2023  1  7 23 11 30.00000000
PL64    700.896848  -6732.118885   1171.450512  23480.692101
VL64  -4895.892693  12566.189444  75080.284134 999999.999999
*  2023  1  7 23 12  0.00000000
PL64    685.913165  -6690.681108   1395.998795  23481.151465
VL64  -5090.492962  15056.566620  74604.713368 999999.999999
*  2023  1  7 23 12 30.00000000
PL64    670.370384  -6641.795478   1618.995933  23481.610862
VL64  -5268.601041  17530.951616  74046.286591 999999.999999
*  2023  1  7 23 13  0.00000000
PL64    654.318176  -6585.514225   1840.194297  23482.070141
VL64  -5430.092793  19986.511057  73405.645905 999999.999999
*  2023  1  7 23 13 30.00000000
PL64    637.806537  -6521.898049   2059.348330  23482.529579
VL64  -5574.875091  22420.433581  72683.530003 999999.999999
*  2023  1  7 23 14  0.00000000
PL64    620.885697  -6451.016043   2276.214833  23482.988893
VL64  -5702.886791  24829.937685  71880.772600 999999.999999
*  2023  1  7 23 14 30.00000000
PL64    603.606018  -6372.945591   2490.553244  23483.448440
VL64  -5814.097958  27212.274857  70998.296719 999999.999999
*  2023  1  7 23 15  0.00000000
PL64    586.017910  -6287.772278   2702.125903  23483.908285
VL64  -5908.508940  29564.728895  70037.113453 999999.999999
*  2023  1  7 23 15 30.00000000
PL64    568.171734  -6195.589783   2910.698315  23484.367773
VL64  -5986.151266  31884.619214  68998.323244 999999.999999
*  2023  1  7 23 16  0.00000000
PL64    550.117709  -6096.499768   3116.039420  23484.826933
VL64  -6047.088195  34169.305366  67883.113506 999999.999999
EOF
